start=new Date('2023-06-17T00:00:00.000Z').valueOf();
sats=[{"APOAPSIS":"540.340","LAUNCH_DATE":"2022-07-24","PERIAPSIS":"539.092","MEAN_ELEMENT_THEORY":"SGP4","MEAN_ANOMALY":"287.9380","ECCENTRICITY":"0.00009020","FILE":"3934949","NORAD_CAT_ID":"53280","RCS_SIZE":"LARGE","REF_FRAME":"TEME","GP_ID":"234095678","TIME_SYSTEM":"UTC","OBJECT_NAME":"STARLINK-4169","ARG_OF_PERICENTER":"72.1710","REV_AT_EPOCH":"5133","TLE_LINE2":"2 53280  53.2184 294.1708 0000902  72.1710 287.9380 15.08849662 51331","MEAN_MOTION_DOT":"0.00004062","CLASSIFICATION_TYPE":"U","COUNTRY_CODE":"US","RA_OF_ASC_NODE":"294.1708","OBJECT_ID":"2022-086AQ","DECAY_DATE":null,"ELEMENT_SET_NO":"999","CENTER_NAME":"EARTH","SITE":"AFETR","MEAN_MOTION_DDOT":"0.0000000000000","TLE_LINE1":"1 53280U 22086AQ  23167.76291121  .00004062  00000-0  27308-3 0  9999","SEMIMAJOR_AXIS":"6917.851","BSTAR":"0.00027308000000","PERIOD":"95.437","OBJECT_TYPE":"PAYLOAD","INCLINATION":"53.2184","MEAN_MOTION":"15.08849662","EPHEMERIS_TYPE":"0","EPOCH":"2023-06-16T18:18:35.528544"},{"TLE_LINE2":"2 53281  53.2160 339.5202 0001010  69.0891 291.0209 15.08860066 50690","MEAN_MOTION_DOT":"0.00006596","ARG_OF_PERICENTER":"69.0891","REV_AT_EPOCH":"5069","TIME_SYSTEM":"UTC","OBJECT_NAME":"STARLINK-4182","FILE":"3934949","NORAD_CAT_ID":"53281","RCS_SIZE":"LARGE","GP_ID":"234095927","REF_FRAME":"TEME","LAUNCH_DATE":"2022-07-24","APOAPSIS":"540.383","PERIAPSIS":"538.985","MEAN_ELEMENT_THEORY":"SGP4","MEAN_ANOMALY":"291.0209","ECCENTRICITY":"0.00010100","OBJECT_TYPE":"PAYLOAD","INCLINATION":"53.2160","BSTAR":"0.00043188000000","PERIOD":"95.436","EPOCH":"2023-06-16T18:15:21.106944","EPHEMERIS_TYPE":"0","MEAN_MOTION":"15.08860066","DECAY_DATE":null,"TLE_LINE1":"1 53281U 22086AR  23167.76066096  .00006596  00000-0  43188-3 0  9999","SEMIMAJOR_AXIS":"6917.819","ELEMENT_SET_NO":"999","CENTER_NAME":"EARTH","MEAN_MOTION_DDOT":"0.0000000000000","SITE":"AFETR","RA_OF_ASC_NODE":"339.5202","OBJECT_ID":"2022-086AR","COUNTRY_CODE":"US","CLASSIFICATION_TYPE":"U"},{"LAUNCH_DATE":"2022-07-24","APOAPSIS":"540.340","PERIAPSIS":"539.074","MEAN_ANOMALY":"277.9385","MEAN_ELEMENT_THEORY":"SGP4","ECCENTRICITY":"0.00009150","NORAD_CAT_ID":"53282","FILE":"3934949","RCS_SIZE":"LARGE","REF_FRAME":"TEME","GP_ID":"234096167","ARG_OF_PERICENTER":"82.1711","REV_AT_EPOCH":"5069","TIME_SYSTEM":"UTC","OBJECT_NAME":"STARLINK-4164","TLE_LINE2":"2 53282  53.2177 339.4757 0000915  82.1711 277.9385 15.08852605 50691","MEAN_MOTION_DOT":"0.00003169","COUNTRY_CODE":"US","CLASSIFICATION_TYPE":"U","RA_OF_ASC_NODE":"339.4757","OBJECT_ID":"2022-086AS","DECAY_DATE":null,"SEMIMAJOR_AXIS":"6917.842","TLE_LINE1":"1 53282U 22086AS  23167.76801392  .00003169  00000-0  21702-3 0  9997","ELEMENT_SET_NO":"999","CENTER_NAME":"EARTH","SITE":"AFETR","MEAN_MOTION_DDOT":"0.0000000000000","OBJECT_TYPE":"PAYLOAD","INCLINATION":"53.2177","BSTAR":"0.00021702000000","PERIOD":"95.437","EPOCH":"2023-06-16T18:25:56.402688","EPHEMERIS_TYPE":"0","MEAN_MOTION":"15.08852605"},{"MEAN_MOTION_DOT":"-0.00000033","TLE_LINE2":"2 53283  53.2179 339.5253 0001236  93.3393 266.7740 15.08857409 50691","ARG_OF_PERICENTER":"93.3393","REV_AT_EPOCH":"5069","TIME_SYSTEM":"UTC","OBJECT_NAME":"STARLINK-4175","GP_ID":"234094929","REF_FRAME":"TEME","FILE":"3934949","RCS_SIZE":"LARGE","NORAD_CAT_ID":"53283","PERIAPSIS":"538.837","MEAN_ANOMALY":"266.7740","MEAN_ELEMENT_THEORY":"SGP4","ECCENTRICITY":"0.00012360","LAUNCH_DATE":"2022-07-24","APOAPSIS":"540.547","EPOCH":"2023-06-16T18:10:02.291808","EPHEMERIS_TYPE":"0","MEAN_MOTION":"15.08857409","OBJECT_TYPE":"PAYLOAD","INCLINATION":"53.2179","BSTAR":"0.00001599900000","PERIOD":"95.436","SEMIMAJOR_AXIS":"6917.827","TLE_LINE1":"1 53283U 22086AT  23167.75697097 -.00000033  00000-0  15999-4 0  9992","ELEMENT_SET_NO":"999","CENTER_NAME":"EARTH","SITE":"AFETR","MEAN_MOTION_DDOT":"0.0000000000000","DECAY_DATE":null,"OBJECT_ID":"2022-086AT","RA_OF_ASC_NODE":"339.5253","COUNTRY_CODE":"US","CLASSIFICATION_TYPE":"U"},{"OBJECT_ID":"2022-086AU","RA_OF_ASC_NODE":"339.1951","CLASSIFICATION_TYPE":"U","COUNTRY_CODE":"US","MEAN_MOTION":"15.08852068","EPOCH":"2023-06-16T19:56:01.591008","EPHEMERIS_TYPE":"0","BSTAR":"0.00014921000000","PERIOD":"95.437","OBJECT_TYPE":"PAYLOAD","INCLINATION":"53.2178","ELEMENT_SET_NO":"999","CENTER_NAME":"EARTH","MEAN_MOTION_DDOT":"0.0000000000000","SITE":"AFETR","TLE_LINE1":"1 53284U 22086AU  23167.83057397  .00002088  00000-0  14921-3 0  9999","SEMIMAJOR_AXIS":"6917.844","DECAY_DATE":null,"GP_ID":"234095179","REF_FRAME":"TEME","NORAD_CAT_ID":"53284","FILE":"3934949","RCS_SIZE":"LARGE","PERIAPSIS":"538.972","MEAN_ANOMALY":"272.8107","MEAN_ELEMENT_THEORY":"SGP4","ECCENTRICITY":"0.00010640","APOAPSIS":"540.445","LAUNCH_DATE":"2022-07-24","MEAN_MOTION_DOT":"0.00002088","TLE_LINE2":"2 53284  53.2178 339.1951 0001064  87.3007 272.8107 15.08852068 50709","TIME_SYSTEM":"UTC","OBJECT_NAME":"STARLINK-4172","ARG_OF_PERICENTER":"87.3007","REV_AT_EPOCH":"5070"},{"MEAN_ELEMENT_THEORY":"SGP4","PERIAPSIS":"538.939","MEAN_ANOMALY":"264.4539","ECCENTRICITY":"0.00010910","APOAPSIS":"540.449","LAUNCH_DATE":"2022-07-24","REF_FRAME":"TEME","GP_ID":"234096427","FILE":"3934949","NORAD_CAT_ID":"53285","RCS_SIZE":"LARGE","TIME_SYSTEM":"UTC","OBJECT_NAME":"STARLINK-4173","ARG_OF_PERICENTER":"95.6577","REV_AT_EPOCH":"5069","MEAN_MOTION_DOT":"0.00002979","TLE_LINE2":"2 53285  53.2183 339.2771 0001091  95.6577 264.4539 15.08856834 50690","CLASSIFICATION_TYPE":"U","COUNTRY_CODE":"US","OBJECT_ID":"2022-086AV","RA_OF_ASC_NODE":"339.2771","ELEMENT_SET_NO":"999","CENTER_NAME":"EARTH","MEAN_MOTION_DDOT":"0.0000000000000","SITE":"AFETR","TLE_LINE1":"1 53285U 22086AV  23167.81217081  .00002979  00000-0  20510-3 0  9996","SEMIMAJOR_AXIS":"6917.829","DECAY_DATE":null,"MEAN_MOTION":"15.08856834","EPHEMERIS_TYPE":"0","EPOCH":"2023-06-16T19:29:31.557984","BSTAR":"0.00020510000000","PERIOD":"95.436","OBJECT_TYPE":"PAYLOAD","INCLINATION":"53.2183"},{"COUNTRY_CODE":"US","CLASSIFICATION_TYPE":"U","RA_OF_ASC_NODE":"339.5472","OBJECT_ID":"2022-086AW","DECAY_DATE":null,"TLE_LINE1":"1 53286U 22086AW  23167.75425407  .00003416  00000-0  23254-3 0  9998","SEMIMAJOR_AXIS":"6917.842","SITE":"AFETR","MEAN_MOTION_DDOT":"0.0000000000000","ELEMENT_SET_NO":"999","CENTER_NAME":"EARTH","INCLINATION":"53.2179","OBJECT_TYPE":"PAYLOAD","PERIOD":"95.437","BSTAR":"0.00023254000000","EPOCH":"2023-06-16T18:06:07.551648","EPHEMERIS_TYPE":"0","MEAN_MOTION":"15.08852420","LAUNCH_DATE":"2022-07-24","APOAPSIS":"540.348","ECCENTRICITY":"0.00009260","PERIAPSIS":"539.067","MEAN_ELEMENT_THEORY":"SGP4","MEAN_ANOMALY":"271.9227","RCS_SIZE":"LARGE","FILE":"3934949","NORAD_CAT_ID":"53286","GP_ID":"234096667","REF_FRAME":"TEME","REV_AT_EPOCH":"5068","ARG_OF_PERICENTER":"88.1871","OBJECT_NAME":"STARLINK-4165","TIME_SYSTEM":"UTC","TLE_LINE2":"2 53286  53.2179 339.5472 0000926  88.1871 271.9227 15.08852420 50680","MEAN_MOTION_DOT":"0.00003416"},{"COUNTRY_CODE":"US","CLASSIFICATION_TYPE":"U","OBJECT_ID":"2022-086AX","RA_OF_ASC_NODE":"339.6073","TLE_LINE1":"1 53287U 22086AX  23167.73858000  .00004276  00000-0  28646-3 0  9991","SEMIMAJOR_AXIS":"6917.840","MEAN_MOTION_DDOT":"0.0000000000000","SITE":"AFETR","ELEMENT_SET_NO":"999","CENTER_NAME":"EARTH","DECAY_DATE":null,"EPOCH":"2023-06-16T17:43:33.312000","EPHEMERIS_TYPE":"0","MEAN_MOTION":"15.08853230","INCLINATION":"53.2167","OBJECT_TYPE":"PAYLOAD","PERIOD":"95.437","BSTAR":"0.00028646000000","ECCENTRICITY":"0.00008570","MEAN_ELEMENT_THEORY":"SGP4","PERIAPSIS":"539.112","MEAN_ANOMALY":"262.9610","LAUNCH_DATE":"2022-07-24","APOAPSIS":"540.298","REF_FRAME":"TEME","GP_ID":"234095429","RCS_SIZE":"LARGE","FILE":"3934949","NORAD_CAT_ID":"53287","REV_AT_EPOCH":"5068","ARG_OF_PERICENTER":"97.1480","OBJECT_NAME":"STARLINK-4107","TIME_SYSTEM":"UTC","MEAN_MOTION_DOT":"0.00004276","TLE_LINE2":"2 53287  53.2167 339.6073 0000857  97.1480 262.9610 15.08853230 50681"},{"MEAN_MOTION_DOT":"0.00002099","TLE_LINE2":"2 53288  53.2169 339.8582 0001161  87.5830 272.5295 15.08849244 50677","TIME_SYSTEM":"UTC","OBJECT_NAME":"STARLINK-4162","ARG_OF_PERICENTER":"87.5830","REV_AT_EPOCH":"5067","REF_FRAME":"TEME","GP_ID":"234095679","NORAD_CAT_ID":"53288","FILE":"3934949","RCS_SIZE":"LARGE","PERIAPSIS":"538.914","MEAN_ELEMENT_THEORY":"SGP4","MEAN_ANOMALY":"272.5295","ECCENTRICITY":"0.00011610","APOAPSIS":"540.520","LAUNCH_DATE":"2022-07-24","MEAN_MOTION":"15.08849244","EPOCH":"2023-06-16T16:24:03.852288","EPHEMERIS_TYPE":"0","BSTAR":"0.00014989000000","PERIOD":"95.437","OBJECT_TYPE":"PAYLOAD","INCLINATION":"53.2169","ELEMENT_SET_NO":"999","CENTER_NAME":"EARTH","SITE":"AFETR","MEAN_MOTION_DDOT":"0.0000000000000","TLE_LINE1":"1 53288U 22086AY  23167.68337792  .00002099  00000-0  14989-3 0  9992","SEMIMAJOR_AXIS":"6917.852","DECAY_DATE":null,"OBJECT_ID":"2022-086AY","RA_OF_ASC_NODE":"339.8582","CLASSIFICATION_TYPE":"U","COUNTRY_CODE":"US"},{"OBJECT_ID":"2022-086AZ","RA_OF_ASC_NODE":"334.2608","CLASSIFICATION_TYPE":"U","COUNTRY_CODE":"US","MEAN_MOTION":"15.08855240","EPHEMERIS_TYPE":"0","EPOCH":"2023-06-16T20:20:33.599040","BSTAR":"0.00023164000000","PERIOD":"95.437","OBJECT_TYPE":"PAYLOAD","INCLINATION":"53.2175","ELEMENT_SET_NO":"999","CENTER_NAME":"EARTH","SITE":"AFETR","MEAN_MOTION_DDOT":"0.0000000000000","TLE_LINE1":"1 53289U 22086AZ  23167.84761110  .00003402  00000-0  23164-3 0  9990","SEMIMAJOR_AXIS":"6917.834","DECAY_DATE":null,"GP_ID":"234095928","REF_FRAME":"TEME","FILE":"3934949","RCS_SIZE":"LARGE","NORAD_CAT_ID":"53289","PERIAPSIS":"538.963","MEAN_ELEMENT_THEORY":"SGP4","MEAN_ANOMALY":"271.5934","ECCENTRICITY":"0.00010630","APOAPSIS":"540.434","LAUNCH_DATE":"2022-07-24","MEAN_MOTION_DOT":"0.00003402","TLE_LINE2":"2 53289  53.2175 334.2608 0001063  88.5180 271.5934 15.08855240 50765","TIME_SYSTEM":"UTC","OBJECT_NAME":"STARLINK-4176","ARG_OF_PERICENTER":"88.5180","REV_AT_EPOCH":"5076"}];
